ATLAS CENTAUR R/B       
1 06155U 72065B   25324.08761838  .00001282  00000+0  17913-3 0  9990
2 06155  35.0011 227.8826 0033702 169.7506 190.3887 14.77326629825045
SL-8 R/B                
1 08459U 75112B   25324.15317902  .00000299  00000+0  10706-3 0  9992
2 08459  74.0607 220.4005 0016030 334.8056  25.2314 14.38124957616121
SL-3 R/B                
1 10114U 77057B   25324.24642883  .00011976  00000+0  28063-3 0  9991
2 10114  97.5677 126.7125 0007004 326.6888  33.3917 15.42227606651447
SEASAT 1                
1 10967U 78064A   25324.26866069  .00000452  00000+0  16503-3 0  9995
2 10967 108.0079 255.8961 0002197 253.3281 106.7623 14.46024862490699
SL-14 R/B               
1 11267U 79011B   25324.18309705  .00000711  00000+0  67936-4 0  9997
2 11267  82.5254 200.4342 0017584  65.4494 294.8556 14.91731835512455
SL-8 R/B                
1 11574U 79089B   25324.22388099  .00000336  00000+0  10979-3 0  9998
2 11574  74.0680 293.6514 0014771 137.4014 222.8291 14.42261478420321
SL-14 R/B               
1 11672U 80005B   25324.25846352  .00000779  00000+0  76542-4 0  9991
2 11672  82.5163  51.0163 0016196 163.4486 196.7265 14.90751065460188
SL-8 R/B                
1 12139U 81003B   25324.22022991  .00022928  00000+0  62332-3 0  9992
2 12139  82.9336  30.9140 0282031 198.1726 160.9269 15.05954337298178
SL-3 R/B                
1 12465U 81046B   25324.26717468  .00011485  00000+0  29487-3 0  9995
2 12465  81.2345  60.8038 0020364  41.9260 318.3535 15.38963500421583
SL-3 R/B                
1 12904U 81103B   25324.21244661  .00007038  00000+0  32659-3 0  9996
2 12904  81.1584 341.7317 0011645 301.8366  58.1730 15.19842887956596
SL-3 R/B                
1 13068U 82013B   25324.27489269  .00004153  00000+0  18604-3 0  9999
2 13068  81.1733 288.8998 0022585 184.2534 175.8509 15.20799083387719
SL-3 R/B                
1 13154U 82039B   25324.23304378  .00002640  00000+0  16219-3 0  9995
2 13154  81.1763 341.9812 0031566 327.0134  32.9120 15.09342334365129
