CCSDS_OMM_VERS = 2.0
CREATION_DATE  = 
ORIGINATOR     = 

OBJECT_NAME    = ATLAS CENTAUR R/B
OBJECT_ID      = 1972-065B
CENTER_NAME    = EARTH
REF_FRAME      = TEME
TIME_SYSTEM    = UTC
MEAN_ELEMENT_THEORY = SGP/SGP4

EPOCH          = 2025-11-20T02:06:10.228032
MEAN_MOTION    = 14.77326629
ECCENTRICITY   = .00337022
INCLINATION    = 35.0011
RA_OF_ASC_NODE = 227.8826
ARG_OF_PERICENTER = 169.7506
MEAN_ANOMALY   = 190.3887

EPHEMERIS_TYPE = 0
CLASSIFICATION_TYPE = U
NORAD_CAT_ID   = 6155
ELEMENT_SET_NO = 999
REV_AT_EPOCH   = 82504
BSTAR          = .1791328E-3
MEAN_MOTION_DOT = .1282E-4
MEAN_MOTION_DDOT = 0

CCSDS_OMM_VERS = 2.0
CREATION_DATE  = 
ORIGINATOR     = 

OBJECT_NAME    = SL-8 R/B
OBJECT_ID      = 1975-112B
CENTER_NAME    = EARTH
REF_FRAME      = TEME
TIME_SYSTEM    = UTC
MEAN_ELEMENT_THEORY = SGP/SGP4

EPOCH          = 2025-11-20T03:40:34.667328
MEAN_MOTION    = 14.38124957
ECCENTRICITY   = .00160308
INCLINATION    = 74.0607
RA_OF_ASC_NODE = 220.4005
ARG_OF_PERICENTER = 334.8056
MEAN_ANOMALY   = 25.2314

EPHEMERIS_TYPE = 0
CLASSIFICATION_TYPE = U
NORAD_CAT_ID   = 8459
ELEMENT_SET_NO = 999
REV_AT_EPOCH   = 61612
BSTAR          = .10706473E-3
MEAN_MOTION_DOT = .299E-5
MEAN_MOTION_DDOT = 0

CCSDS_OMM_VERS = 2.0
CREATION_DATE  = 
ORIGINATOR     = 

OBJECT_NAME    = SL-3 R/B
OBJECT_ID      = 1977-057B
CENTER_NAME    = EARTH
REF_FRAME      = TEME
TIME_SYSTEM    = UTC
MEAN_ELEMENT_THEORY = SGP/SGP4

EPOCH          = 2025-11-20T05:54:51.450912
MEAN_MOTION    = 15.42227606
ECCENTRICITY   = .00070047
INCLINATION    = 97.5677
RA_OF_ASC_NODE = 126.7125
ARG_OF_PERICENTER = 326.6888
MEAN_ANOMALY   = 33.3917

EPHEMERIS_TYPE = 0
CLASSIFICATION_TYPE = U
NORAD_CAT_ID   = 10114
ELEMENT_SET_NO = 999
REV_AT_EPOCH   = 65144
BSTAR          = .28063202E-3
MEAN_MOTION_DOT = .11976E-3
MEAN_MOTION_DDOT = 0

CCSDS_OMM_VERS = 2.0
CREATION_DATE  = 
ORIGINATOR     = 

OBJECT_NAME    = SEASAT 1
OBJECT_ID      = 1978-064A
CENTER_NAME    = EARTH
REF_FRAME      = TEME
TIME_SYSTEM    = UTC
MEAN_ELEMENT_THEORY = SGP/SGP4

EPOCH          = 2025-11-20T06:26:52.283616
MEAN_MOTION    = 14.46024862
ECCENTRICITY   = .00021974
INCLINATION    = 108.0079
RA_OF_ASC_NODE = 255.8961
ARG_OF_PERICENTER = 253.3281
MEAN_ANOMALY   = 106.7623

EPHEMERIS_TYPE = 0
CLASSIFICATION_TYPE = U
NORAD_CAT_ID   = 10967
ELEMENT_SET_NO = 999
REV_AT_EPOCH   = 49069
BSTAR          = .16503012E-3
MEAN_MOTION_DOT = .452E-5
MEAN_MOTION_DDOT = 0

CCSDS_OMM_VERS = 2.0
CREATION_DATE  = 
ORIGINATOR     = 

OBJECT_NAME    = SL-14 R/B
OBJECT_ID      = 1979-011B
CENTER_NAME    = EARTH
REF_FRAME      = TEME
TIME_SYSTEM    = UTC
MEAN_ELEMENT_THEORY = SGP/SGP4

EPOCH          = 2025-11-20T04:23:39.585120
MEAN_MOTION    = 14.91731835
ECCENTRICITY   = .0017584
INCLINATION    = 82.5254
RA_OF_ASC_NODE = 200.4342
ARG_OF_PERICENTER = 65.4494
MEAN_ANOMALY   = 294.8556

EPHEMERIS_TYPE = 0
CLASSIFICATION_TYPE = U
NORAD_CAT_ID   = 11267
ELEMENT_SET_NO = 999
REV_AT_EPOCH   = 51245
BSTAR          = .67935725E-4
MEAN_MOTION_DOT = .711E-5
MEAN_MOTION_DDOT = 0

CCSDS_OMM_VERS = 2.0
CREATION_DATE  = 
ORIGINATOR     = 

OBJECT_NAME    = SL-8 R/B
OBJECT_ID      = 1979-089B
CENTER_NAME    = EARTH
REF_FRAME      = TEME
TIME_SYSTEM    = UTC
MEAN_ELEMENT_THEORY = SGP/SGP4

EPOCH          = 2025-11-20T05:22:23.317536
MEAN_MOTION    = 14.42261478
ECCENTRICITY   = .00147719
INCLINATION    = 74.0680
RA_OF_ASC_NODE = 293.6514
ARG_OF_PERICENTER = 137.4014
MEAN_ANOMALY   = 222.8291

EPHEMERIS_TYPE = 0
CLASSIFICATION_TYPE = U
NORAD_CAT_ID   = 11574
ELEMENT_SET_NO = 999
REV_AT_EPOCH   = 42032
BSTAR          = .10979217E-3
MEAN_MOTION_DOT = .336E-5
MEAN_MOTION_DDOT = 0

CCSDS_OMM_VERS = 2.0
CREATION_DATE  = 
ORIGINATOR     = 

OBJECT_NAME    = SL-14 R/B
OBJECT_ID      = 1980-005B
CENTER_NAME    = EARTH
REF_FRAME      = TEME
TIME_SYSTEM    = UTC
MEAN_ELEMENT_THEORY = SGP/SGP4

EPOCH          = 2025-11-20T06:12:11.248128
MEAN_MOTION    = 14.90751065
ECCENTRICITY   = .00161966
INCLINATION    = 82.5163
RA_OF_ASC_NODE = 51.0163
ARG_OF_PERICENTER = 163.4486
MEAN_ANOMALY   = 196.7265

EPHEMERIS_TYPE = 0
CLASSIFICATION_TYPE = U
NORAD_CAT_ID   = 11672
ELEMENT_SET_NO = 999
REV_AT_EPOCH   = 46018
BSTAR          = .76541989E-4
MEAN_MOTION_DOT = .779E-5
MEAN_MOTION_DDOT = 0

CCSDS_OMM_VERS = 2.0
CREATION_DATE  = 
ORIGINATOR     = 

OBJECT_NAME    = SL-8 R/B
OBJECT_ID      = 1981-003B
CENTER_NAME    = EARTH
REF_FRAME      = TEME
TIME_SYSTEM    = UTC
MEAN_ELEMENT_THEORY = SGP/SGP4

EPOCH          = 2025-11-20T05:17:07.864224
MEAN_MOTION    = 15.05954337
ECCENTRICITY   = .0282031
INCLINATION    = 82.9336
RA_OF_ASC_NODE = 30.9140
ARG_OF_PERICENTER = 198.1726
MEAN_ANOMALY   = 160.9269

EPHEMERIS_TYPE = 0
CLASSIFICATION_TYPE = U
NORAD_CAT_ID   = 12139
ELEMENT_SET_NO = 999
REV_AT_EPOCH   = 29817
BSTAR          = .62331885E-3
MEAN_MOTION_DOT = .22928E-3
MEAN_MOTION_DDOT = 0

CCSDS_OMM_VERS = 2.0
CREATION_DATE  = 
ORIGINATOR     = 

OBJECT_NAME    = SL-3 R/B
OBJECT_ID      = 1981-046B
CENTER_NAME    = EARTH
REF_FRAME      = TEME
TIME_SYSTEM    = UTC
MEAN_ELEMENT_THEORY = SGP/SGP4

EPOCH          = 2025-11-20T06:24:43.892352
MEAN_MOTION    = 15.38963500
ECCENTRICITY   = .00203649
INCLINATION    = 81.2345
RA_OF_ASC_NODE = 60.8038
ARG_OF_PERICENTER = 41.9260
MEAN_ANOMALY   = 318.3535

EPHEMERIS_TYPE = 0
CLASSIFICATION_TYPE = U
NORAD_CAT_ID   = 12465
ELEMENT_SET_NO = 999
REV_AT_EPOCH   = 42158
BSTAR          = .29486788E-3
MEAN_MOTION_DOT = .11485E-3
MEAN_MOTION_DDOT = 0

CCSDS_OMM_VERS = 2.0
CREATION_DATE  = 
ORIGINATOR     = 

OBJECT_NAME    = SL-3 R/B
OBJECT_ID      = 1981-103B
CENTER_NAME    = EARTH
REF_FRAME      = TEME
TIME_SYSTEM    = UTC
MEAN_ELEMENT_THEORY = SGP/SGP4

EPOCH          = 2025-11-20T05:05:55.387104
MEAN_MOTION    = 15.19842887
ECCENTRICITY   = .00116458
INCLINATION    = 81.1584
RA_OF_ASC_NODE = 341.7317
ARG_OF_PERICENTER = 301.8366
MEAN_ANOMALY   = 58.1730

EPHEMERIS_TYPE = 0
CLASSIFICATION_TYPE = U
NORAD_CAT_ID   = 12904
ELEMENT_SET_NO = 999
REV_AT_EPOCH   = 95659
BSTAR          = .32659322E-3
MEAN_MOTION_DOT = .7038E-4
MEAN_MOTION_DDOT = 0

CCSDS_OMM_VERS = 2.0
CREATION_DATE  = 
ORIGINATOR     = 

OBJECT_NAME    = SL-3 R/B
OBJECT_ID      = 1982-013B
CENTER_NAME    = EARTH
REF_FRAME      = TEME
TIME_SYSTEM    = UTC
MEAN_ELEMENT_THEORY = SGP/SGP4

EPOCH          = 2025-11-20T06:35:50.728416
MEAN_MOTION    = 15.20799083
ECCENTRICITY   = .00225856
INCLINATION    = 81.1733
RA_OF_ASC_NODE = 288.8998
ARG_OF_PERICENTER = 184.2534
MEAN_ANOMALY   = 175.8509

EPHEMERIS_TYPE = 0
CLASSIFICATION_TYPE = U
NORAD_CAT_ID   = 13068
ELEMENT_SET_NO = 999
REV_AT_EPOCH   = 38771
BSTAR          = .1860404E-3
MEAN_MOTION_DOT = .4153E-4
MEAN_MOTION_DDOT = 0

CCSDS_OMM_VERS = 2.0
CREATION_DATE  = 
ORIGINATOR     = 

OBJECT_NAME    = SL-3 R/B
OBJECT_ID      = 1982-039B
CENTER_NAME    = EARTH
REF_FRAME      = TEME
TIME_SYSTEM    = UTC
MEAN_ELEMENT_THEORY = SGP/SGP4

EPOCH          = 2025-11-20T05:35:34.982592
MEAN_MOTION    = 15.09342334
ECCENTRICITY   = .00315663
INCLINATION    = 81.1763
RA_OF_ASC_NODE = 341.9812
ARG_OF_PERICENTER = 327.0134
MEAN_ANOMALY   = 32.9120

EPHEMERIS_TYPE = 0
CLASSIFICATION_TYPE = U
NORAD_CAT_ID   = 13154
ELEMENT_SET_NO = 999
REV_AT_EPOCH   = 36512
BSTAR          = .16218559E-3
MEAN_MOTION_DOT = .264E-4
MEAN_MOTION_DDOT = 0

